[{"OBJECT_NAME":"RISAT-2BR1","OBJECT_ID":"2019-089F","EPOCH":"2026-03-09T22:23:56.080608","MEAN_MOTION":15.01632497,"ECCENTRICITY":0.00130957,"INCLINATION":36.9618,"RA_OF_ASC_NODE":340.419,"ARG_OF_PERICENTER":88.0635,"MEAN_ANOMALY":272.1607,"EPHEMERIS_TYPE":0,"CLASSIFICATION_TYPE":"U","NORAD_CAT_ID":44857,"ELEMENT_SET_NO":999,"REV_AT_EPOCH":34227,"BSTAR":0.00042406412,"MEAN_MOTION_DOT":5.543e-5,"MEAN_MOTION_DDOT":0},{"OBJECT_NAME":"STARLINK-34564","OBJECT_ID":"2025-152L","EPOCH":"2026-03-09T12:46:03.832320","MEAN_MOTION":15.05653403,"ECCENTRICITY":0.00025131,"INCLINATION":97.6022,"RA_OF_ASC_NODE":285.3515,"ARG_OF_PERICENTER":80.3591,"MEAN_ANOMALY":279.7919,"EPHEMERIS_TYPE":0,"CLASSIFICATION_TYPE":"U","NORAD_CAT_ID":64852,"ELEMENT_SET_NO":999,"REV_AT_EPOCH":3539,"BSTAR":0.00036496596,"MEAN_MOTION_DOT":5.21e-5,"MEAN_MOTION_DDOT":0}]
